NORAD_CAT_ID,OBJECT_NAME,OBJECT_TYPE,EPOCH,MEAN_MOTION,ECCENTRICITY,INCLINATION,RA_OF_ASC_NODE,ARG_OF_PERICENTER,MEAN_ANOMALY,BSTAR,MEAN_MOTION_DOT,MEAN_MOTION_DDOT,TLE_LINE0,TLE_LINE1,TLE_LINE2,SEMIMAJOR_AXIS,PERIOD,APOGEE,PERIGEE,DECAYED
55770.0,STARLINK-5557,PAYLOAD,2024-06-08 20:56:14,14.98333939,0.0003127,70.0013,35.1758,270.5214,89.5587,0.0001647,1.873e-05,0.0,0 STARLINK-5557,1 55770U 23028AF  24160.87239435  .00001873  00000-0  16470-3 0  9993,2 55770  70.0013  35.1758 0003127 270.5214  89.5587 14.98333939 70832,6950.181,96.107,574.219,569.872,0.0
55770.0,STARLINK-5557,PAYLOAD,2024-06-08 22:32:22,14.98334039,0.0003128,70.0014,35.0077,271.0068,89.0733,0.00025398,2.939e-05,0.0,0 STARLINK-5557,1 55770U 23028AF  24160.93915449  .00002939  00000-0  25398-3 0  9999,2 55770  70.0014  35.0077 0003128 271.0068  89.0733 14.98334039 70852,6950.18,96.107,574.219,569.871,0.0
55770.0,STARLINK-5557,PAYLOAD,2024-06-09 14:33:43,14.98334167,0.0003124,70.0013,33.3242,269.9129,90.1672,0.0003888,4.55e-05,0.0,0 STARLINK-5557,1 55770U 23028AF  24161.60675554  .00004550  00000-0  38880-3 0  9995,2 55770  70.0013  33.3242 0003124 269.9129  90.1672 14.98334167 70954,6950.18,96.107,574.216,569.874,0.0
55770.0,STARLINK-5557,PAYLOAD,2024-06-09 20:58:15,14.98340471,0.0003108,70.0014,32.6509,270.8151,89.2652,0.00080687,9.55e-05,0.0,0 STARLINK-5557,1 55770U 23028AF  24161.87379469  .00009550  00000-0  80687-3 0  9997,2 55770  70.0014  32.6509 0003108 270.8151  89.2652 14.98340471 70986,6950.161,96.106,574.186,569.865,0.0
55770.0,STARLINK-5557,PAYLOAD,2024-06-09 22:34:23,14.98341795,0.0003114,70.0014,32.4825,270.1996,89.8806,0.00082449,9.761e-05,0.0,0 STARLINK-5557,1 55770U 23028AF  24161.94055410  .00009761  00000-0  82449-3 0  9994,2 55770  70.0014  32.4825 0003114 270.1996  89.8806 14.98341795 71003,6950.156,96.106,574.186,569.857,0.0
55770.0,STARLINK-5557,PAYLOAD,2024-06-10 12:59:36,14.9833554,0.0003123,70.0011,30.9676,269.494,90.5861,0.00024538,2.836e-05,0.0,0 STARLINK-5557,1 55770U 23028AF  24162.54139354  .00002836  00000-0  24538-3 0  9992,2 55770  70.0011  30.9676 0003123 269.4940  90.5861 14.98335540 71086,6950.176,96.107,574.211,569.87,0.0
55770.0,STARLINK-5557,PAYLOAD,2024-06-10 14:35:44,14.98334284,0.0003128,70.0012,30.7993,269.451,90.629,0.00018324,2.094e-05,0.0,0 STARLINK-5557,1 55770U 23028AF  24162.60815365  .00002094  00000-0  18324-3 0  9994,2 55770  70.0012  30.7993 0003128 269.4510  90.6290 14.98334284 71109,6950.18,96.107,574.219,569.871,0.0
55770.0,STARLINK-5557,PAYLOAD,2024-06-10 22:36:24,14.98339985,0.0003133,70.0012,29.9574,270.0538,90.0262,0.00035988,4.205e-05,0.0,0 STARLINK-5557,1 55770U 23028AF  24162.94195184  .00004205  00000-0  35988-3 0  9992,2 55770  70.0012  29.9574 0003133 270.0538  90.0262 14.98339985 71159,6950.162,96.106,574.204,569.85,0.0
55770.0,STARLINK-5557,PAYLOAD,2024-06-11 13:01:37,14.98336693,0.000313,70.0012,28.4423,269.0924,90.9876,0.00020479,2.352e-05,0.0,0 STARLINK-5557,1 55770U 23028AF  24163.54279082  .00002352  00000-0  20479-3 0  9999,2 55770  70.0012  28.4423 0003130 269.0924  90.9876 14.98336693 71243,6950.172,96.107,574.213,569.862,0.0
55770.0,STARLINK-5557,PAYLOAD,2024-06-12 05:02:57,14.98346892,0.0003136,70.0013,26.7588,269.4125,90.6675,0.00058312,6.875e-05,0.0,0 STARLINK-5557,1 55770U 23028AF  24164.21038542  .00006875  00000-0  58312-3 0  9999,2 55770  70.0013  26.7588 0003136 269.4125  90.6675 14.98346892 71336,6950.141,96.106,574.185,569.826,0.0
55770.0,STARLINK-5557,PAYLOAD,2024-06-12 11:27:29,14.98328481,0.0003153,70.0014,26.0857,271.8688,88.211,-9.7867e-05,-1.26e-05,0.0,0 STARLINK-5557,1 55770U 23028AF  24164.47743043 -.00001260  00000-0 -97867-4 0  9990,2 55770  70.0014  26.0857 0003153 271.8688  88.2110 14.98328481 71374,6950.198,96.107,574.254,569.871,0.0
55770.0,STARLINK-5557,PAYLOAD,2024-06-12 21:04:18,14.98331735,0.0003192,70.0014,25.0755,271.4823,88.597,0.00012999,1.458e-05,0.0,0 STARLINK-5557,1 55770U 23028AF  24164.87799146  .00001458  00000-0  12999-3 0  9998,2 55770  70.0014  25.0755 0003192 271.4823  88.5970 14.98331735 71441,6950.188,96.107,574.271,569.834,0.0
55770.0,STARLINK-5557,PAYLOAD,2024-06-13 14:41:47,14.98334219,0.0003205,70.0014,23.2243,271.8562,88.223,0.00018871,2.16e-05,0.0,0 STARLINK-5557,1 55770U 23028AF  24165.61235128  .00002160  00000-0  18871-3 0  9992,2 55770  70.0014  23.2243 0003205 271.8562  88.2230 14.98334219 71550,6950.18,96.107,574.272,569.817,0.0
55770.0,STARLINK-5557,PAYLOAD,2024-06-13 22:42:27,14.98338487,0.0003214,70.0016,22.3827,272.0632,88.0159,0.00042173,4.944e-05,0.0,0 STARLINK-5557,1 55770U 23028AF  24165.94615041  .00004944  00000-0  42173-3 0  9998,2 55770  70.0016  22.3827 0003214 272.0632  88.0159 14.98338487 71606,6950.167,96.106,574.265,569.798,0.0
55770.0,STARLINK-5557,PAYLOAD,2024-06-14 14:43:48,14.9833056,0.0003207,70.0019,20.6994,271.9298,88.1494,0.00014832,1.677e-05,0.0,0 STARLINK-5557,1 55770U 23028AF  24166.61375286  .00001677  00000-0  14832-3 0  9998,2 55770  70.0019  20.6994 0003207 271.9298  88.1494 14.98330560 71701,6950.191,96.107,574.285,569.827,0.0
55770.0,STARLINK-5557,PAYLOAD,2024-06-14 22:44:28,14.98334426,0.0003157,70.0019,19.8577,271.5565,88.5233,0.00022597,2.605e-05,0.0,0 STARLINK-5557,1 55770U 23028AF  24166.94755148  .00002605  00000-0  22597-3 0  9992,2 55770  70.0019  19.8577 0003157 271.5565  88.5233 14.98334426 71750,6950.179,96.107,574.238,569.85,0.0
55770.0,STARLINK-5557,PAYLOAD,2024-06-15 14:45:48,14.98337572,0.0002994,70.002,18.1743,271.7304,88.3512,0.00014399,1.626e-05,0.0,0 STARLINK-5557,1 55770U 23028AF  24167.61514964  .00001626  00000-0  14399-3 0  9999,2 55770  70.0020  18.1743 0002994 271.7304  88.3512 14.98337572 71854,6950.169,96.107,574.115,569.954,0.0
55770.0,STARLINK-5557,PAYLOAD,2024-06-15 22:46:29,14.98338128,0.0002987,70.002,17.3329,271.693,88.3887,0.00015233,1.725e-05,0.0,0 STARLINK-5557,1 55770U 23028AF  24167.94894788  .00001725  00000-0  15233-3 0  9998,2 55770  70.0020  17.3329 0002987 271.6930  88.3887 14.98338128 71900,6950.168,96.106,574.109,569.957,0.0
55770.0,STARLINK-5557,PAYLOAD,2024-06-16 14:47:49,14.98333641,0.0002945,70.0003,15.6496,271.0906,88.9916,0.0001369,1.541e-05,0.0,0 STARLINK-5557,1 55770U 23028AF  24168.61654990  .00001541  00000-0  13690-3 0  9993,2 55770  70.0003  15.6496 0002945 271.0906  88.9916 14.98333641 72004,6950.182,96.107,574.093,570.0,0.0
55770.0,STARLINK-5557,PAYLOAD,2024-06-16 21:12:22,14.98333923,0.0002933,70.0003,14.9766,269.1358,90.9465,0.00012305,1.376e-05,0.0,0 STARLINK-5557,1 55770U 23028AF  24168.88358911  .00001376  00000-0  12305-3 0  9994,2 55770  70.0003  14.9766 0002933 269.1358  90.9465 14.98333923 72041,6950.181,96.107,574.084,570.007,0.0
55770.0,STARLINK-5557,PAYLOAD,2024-06-17 21:14:23,14.98330246,0.0002915,70.0002,12.4516,270.3116,89.7709,1.2635e-05,5.8e-07,0.0,0 STARLINK-5557,1 55770U 23028AF  24169.88499194  .00000058  00000-0  12635-4 0  9997,2 55770  70.0002  12.4516 0002915 270.3116  89.7709 14.98330246 72189,6950.192,96.107,574.083,570.031,0.0
55770.0,STARLINK-5557,PAYLOAD,2024-06-18 14:51:51,14.98334839,0.0002993,70.0001,10.5996,270.4338,89.6478,0.00010509,1.161e-05,0.0,0 STARLINK-5557,1 55770U 23028AF  24170.61934530  .00001161  00000-0  10509-3 0  9991,2 55770  70.0001  10.5996 0002993 270.4338  89.6478 14.98334839 72300,6950.178,96.107,574.123,569.963,0.0
55770.0,STARLINK-5557,PAYLOAD,2024-06-18 19:40:15,14.9833688,0.0003,70.0001,10.0948,270.249,89.8325,0.00011249,1.25e-05,0.0,0 STARLINK-5557,1 55770U 23028AF  24170.81962339  .00001250  00000-0  11249-3 0  9992,2 55770  70.0001  10.0948 0003000 270.2490  89.8325 14.98336880 72322,6950.172,96.107,574.122,569.952,0.0
55770.0,STARLINK-5557,PAYLOAD,2024-06-18 21:16:23,14.98336453,0.0003015,70.0001,9.9264,270.1806,89.9008,0.00010492,1.159e-05,0.0,0 STARLINK-5557,1 55770U 23028AF  24170.88638368  .00001159  00000-0  10492-3 0  9998,2 55770  70.0001   9.9264 0003015 270.1806  89.9008 14.98336453 72343,6950.173,96.107,574.133,569.942,0.0
55770.0,STARLINK-5557,PAYLOAD,2024-06-19 13:17:44,14.98327801,0.0003095,69.9997,8.2425,269.7603,90.3202,9.7148e-05,1.066e-05,0.0,0 STARLINK-5557,1 55770U 23028AF  24171.55398836  .00001066  00000-0  97148-4 0  9997,2 55770  69.9997   8.2425 0003095 269.7603  90.3202 14.98327801 72431,6950.2,96.107,574.216,569.914,0.0
55770.0,STARLINK-5557,PAYLOAD,2024-06-19 14:53:52,14.98327645,0.0003094,69.9997,8.0742,269.812,90.2685,9.294e-05,1.016e-05,0.0,0 STARLINK-5557,1 55770U 23028AF  24171.62074868  .00001016  00000-0  92940-4 0  9991,2 55770  69.9997   8.0742 0003094 269.8120  90.2685 14.98327645 72457,6950.2,96.107,574.216,569.915,0.0
55770.0,STARLINK-5557,PAYLOAD,2024-06-19 21:18:25,14.98327558,0.0003036,70.0001,7.4015,270.0122,90.0689,3.4925e-05,3.24e-06,0.0,0 STARLINK-5557,1 55770U 23028AF  24171.88779034  .00000324  00000-0  34925-4 0  9996,2 55770  70.0001   7.4015 0003036 270.0122  90.0689 14.98327558 72493,6950.2,96.107,574.176,569.955,0.0
55770.0,STARLINK-5557,PAYLOAD,2024-06-20 14:55:53,14.98330295,0.0003078,69.9999,5.5486,270.1506,89.93,-2.0128e-06,-1.17e-06,0.0,0 STARLINK-5557,1 55770U 23028AF  24172.62214974 -.00000117  00000-0 -20128-5 0  9999,2 55770  69.9999   5.5486 0003078 270.1506  89.9300 14.98330295 72602,6950.192,96.107,574.196,569.918,0.0
55770.0,STARLINK-5557,PAYLOAD,2024-06-20 21:20:25,14.98333232,0.0003089,69.9999,4.8755,270.5319,89.5486,1.8129e-06,-7.1e-07,0.0,0 STARLINK-5557,1 55770U 23028AF  24172.88918737 -.00000071  00000-0  18129-5 0  9991,2 55770  69.9999   4.8755 0003089 270.5319  89.5486 14.98333232 72640,6950.183,96.107,574.195,569.901,0.0
55770.0,STARLINK-5557,PAYLOAD,2024-06-20 22:56:33,14.98333341,0.0003056,70.0,4.7073,269.9808,90.1,7.1655e-06,-8e-08,0.0,0 STARLINK-5557,1 55770U 23028AF  24172.95594705 -.00000008  00000-0  71655-5 0  9997,2 55770  70.0000   4.7073 0003056 269.9808  90.1000 14.98333341 72648,6950.183,96.107,574.172,569.924,0.0
